{
  "type": "FeatureCollection",
  "features": [
    {
      "type": "Feature",
      "properties": {
        "norad_id": 26766,
        "name": "INTELSAT 10 (IS-10)",
        "group": "intelsat",
        "lat": 8.64625577306647,
        "lon": 147.4859040961863,
        "alt_km": 36149.386280200946,
        "timestamp": "2025-12-19T20:42:59.748358+00:00",
        "meta_object_name": "INTELSAT 10 (IS-10)",
        "meta_object_id": "2001-019A",
        "meta_epoch": "2025-12-18T15:52:21.542016",
        "meta_mean_motion": 0.99076062,
        "meta_eccentricity": 0.00076782,
        "meta_inclination": 8.6429,
        "meta_ra_of_asc_node": 61.0978,
        "meta_arg_of_pericenter": 228.2333,
        "meta_mean_anomaly": 149.5829,
        "meta_ephemeris_type": 0,
        "meta_classification_type": "U",
        "meta_norad_cat_id": 26766,
        "meta_element_set_no": 999,
        "meta_rev_at_epoch": 4379,
        "meta_bstar": 0,
        "meta_mean_motion_dot": -1.61e-06,
        "meta_mean_motion_ddot": 0,
        "tle_line1": "1 26766U 01019A   25352.66136044 -.00000161  00000+0  00000+0 0  9992",
        "tle_line2": "2 26766   8.6429  61.0978 0007678 228.2333 149.5829  0.99076062 43790"
      },
      "geometry": {
        "type": "Point",
        "coordinates": [
          147.4859040961863,
          8.64625577306647
        ]
      }
    },
    {
      "type": "Feature",
      "properties": {
        "norad_id": 26900,
        "name": "INTELSAT 902 (IS-902)",
        "group": "intelsat",
        "lat": -5.6464454295604245,
        "lon": -10.601224009500681,
        "alt_km": 35786.07387184407,
        "timestamp": "2025-12-19T20:42:59.748382+00:00",
        "meta_object_name": "INTELSAT 902 (IS-902)",
        "meta_object_id": "2001-039A",
        "meta_epoch": "2025-12-15T13:09:02.081664",
        "meta_mean_motion": 1.0027087,
        "meta_eccentricity": 0.00045028,
        "meta_inclination": 5.6536,
        "meta_ra_of_asc_node": 74.0372,
        "meta_arg_of_pericenter": 189.6359,
        "meta_mean_anomaly": 327.9329,
        "meta_ephemeris_type": 0,
        "meta_classification_type": "U",
        "meta_norad_cat_id": 26900,
        "meta_element_set_no": 999,
        "meta_rev_at_epoch": 8885,
        "meta_bstar": 0,
        "meta_mean_motion_dot": -2.65e-06,
        "meta_mean_motion_ddot": 0,
        "tle_line1": "1 26900U 01039A   25349.54794076 -.00000265  00000+0  00000+0 0  9997",
        "tle_line2": "2 26900   5.6536  74.0372 0004502 189.6359 327.9329  1.00270870 88858"
      },
      "geometry": {
        "type": "Point",
        "coordinates": [
          -10.601224009500681,
          -5.6464454295604245
        ]
      }
    },
    {
      "type": "Feature",
      "properties": {
        "norad_id": 27380,
        "name": "INTELSAT 904 (IS-904)",
        "group": "intelsat",
        "lat": -5.782966357311736,
        "lon": 8.113450741592489,
        "alt_km": 35782.28651785706,
        "timestamp": "2025-12-19T20:42:59.748398+00:00",
        "meta_object_name": "INTELSAT 904 (IS-904)",
        "meta_object_id": "2002-007A",
        "meta_epoch": "2025-12-19T06:28:21.732672",
        "meta_mean_motion": 1.00271349,
        "meta_eccentricity": 0.00017442,
        "meta_inclination": 6.47,
        "meta_ra_of_asc_node": 71.3577,
        "meta_arg_of_pericenter": 246.9588,
        "meta_mean_anomaly": 195.3942,
        "meta_ephemeris_type": 0,
        "meta_classification_type": "U",
        "meta_norad_cat_id": 27380,
        "meta_element_set_no": 999,
        "meta_rev_at_epoch": 4996,
        "meta_bstar": 0,
        "meta_mean_motion_dot": -2.07e-06,
        "meta_mean_motion_ddot": 0,
        "tle_line1": "1 27380U 02007A   25353.26969598 -.00000207  00000+0  00000+0 0  9999",
        "tle_line2": "2 27380   6.4700  71.3577 0001744 246.9588 195.3942  1.00271349 49965"
      },
      "geometry": {
        "type": "Point",
        "coordinates": [
          8.113450741592489,
          -5.782966357311736
        ]
      }
    },
    {
      "type": "Feature",
      "properties": {
        "norad_id": 27426,
        "name": "DIRECTV 5 (TEMPO 1)",
        "group": "intelsat",
        "lat": -2.3514687971821813,
        "lon": -70.7306739353697,
        "alt_km": 35771.63484365891,
        "timestamp": "2025-12-19T20:42:59.748412+00:00",
        "meta_object_name": "DIRECTV 5 (TEMPO 1)",
        "meta_object_id": "2002-023A",
        "meta_epoch": "2025-12-19T05:54:43.346592",
        "meta_mean_motion": 1.0027278,
        "meta_eccentricity": 0.00034269,
        "meta_inclination": 4.4178,
        "meta_ra_of_asc_node": 77.5774,
        "meta_arg_of_pericenter": 207.9446,
        "meta_mean_anomaly": 141.1455,
        "meta_ephemeris_type": 0,
        "meta_classification_type": "U",
        "meta_norad_cat_id": 27426,
        "meta_element_set_no": 999,
        "meta_rev_at_epoch": 8631,
        "meta_bstar": 0,
        "meta_mean_motion_dot": -3.6e-07,
        "meta_mean_motion_ddot": 0,
        "tle_line1": "1 27426U 02023A   25353.24633503 -.00000036  00000+0  00000+0 0  9990",
        "tle_line2": "2 27426   4.4178  77.5774 0003426 207.9446 141.1455  1.00272780 86317"
      },
      "geometry": {
        "type": "Point",
        "coordinates": [
          -70.7306739353697,
          -2.3514687971821813
        ]
      }
    },
    {
      "type": "Feature",
      "properties": {
        "norad_id": 27438,
        "name": "INTELSAT 905 (IS-905)",
        "group": "intelsat",
        "lat": -1.1463272823365633,
        "lon": -97.8224544929683,
        "alt_km": 35775.03134950713,
        "timestamp": "2025-12-19T20:42:59.748425+00:00",
        "meta_object_name": "INTELSAT 905 (IS-905)",
        "meta_object_id": "2002-027A",
        "meta_epoch": "2025-12-18T20:04:07.110624",
        "meta_mean_motion": 1.00272079,
        "meta_eccentricity": 0.00026396,
        "meta_inclination": 6.3,
        "meta_ra_of_asc_node": 71.9858,
        "meta_arg_of_pericenter": 200.0074,
        "meta_mean_anomaly": 339.5183,
        "meta_ephemeris_type": 0,
        "meta_classification_type": "U",
        "meta_norad_cat_id": 27438,
        "meta_element_set_no": 999,
        "meta_rev_at_epoch": 4955,
        "meta_bstar": 0,
        "meta_mean_motion_dot": 1.13e-06,
        "meta_mean_motion_ddot": 0,
        "tle_line1": "1 27438U 02027A   25352.83619341  .00000113  00000+0  00000+0 0  9990",
        "tle_line2": "2 27438   6.3000  71.9858 0002639 200.0074 339.5183  1.00272079 49559"
      },
      "geometry": {
        "type": "Point",
        "coordinates": [
          -97.8224544929683,
          -1.1463272823365633
        ]
      }
    },
    {
      "type": "Feature",
      "properties": {
        "norad_id": 27445,
        "name": "GALAXY 3C (G-3C)",
        "group": "intelsat",
        "lat": -2.3076824498576896,
        "lon": -55.44993320158064,
        "alt_km": 35790.333097255854,
        "timestamp": "2025-12-19T20:42:59.748439+00:00",
        "meta_object_name": "GALAXY 3C (G-3C)",
        "meta_object_id": "2002-030A",
        "meta_epoch": "2025-12-19T06:03:44.417088",
        "meta_mean_motion": 1.00271938,
        "meta_eccentricity": 0.0001141,
        "meta_inclination": 3.2793,
        "meta_ra_of_asc_node": 80.4404,
        "meta_arg_of_pericenter": 78.4282,
        "meta_mean_anomaly": 285.3097,
        "meta_ephemeris_type": 0,
        "meta_classification_type": "U",
        "meta_norad_cat_id": 27445,
        "meta_element_set_no": 999,
        "meta_rev_at_epoch": 4469,
        "meta_bstar": 0,
        "meta_mean_motion_dot": -1.31e-06,
        "meta_mean_motion_ddot": 0,
        "tle_line1": "1 27445U 02030A   25353.25259742 -.00000131  00000+0  00000+0 0  9995",
        "tle_line2": "2 27445   3.2793  80.4404 0001141  78.4282 285.3097  1.00271938 44694"
      },
      "geometry": {
        "type": "Point",
        "coordinates": [
          -55.44993320158064,
          -2.3076824498576896
        ]
      }
    },
    {
      "type": "Feature",
      "properties": {
        "norad_id": 27513,
        "name": "INTELSAT 906 (IS-906)",
        "group": "intelsat",
        "lat": 2.5683709447223175,
        "lon": 103.46027450528618,
        "alt_km": 35811.82703578477,
        "timestamp": "2025-12-19T20:42:59.748451+00:00",
        "meta_object_name": "INTELSAT 906 (IS-906)",
        "meta_object_id": "2002-041A",
        "meta_epoch": "2025-12-19T05:00:36.705888",
        "meta_mean_motion": 1.00272586,
        "meta_eccentricity": 0.00063202,
        "meta_inclination": 5.3458,
        "meta_ra_of_asc_node": 75.1553,
        "meta_arg_of_pericenter": 197.8697,
        "meta_mean_anomaly": 314.3156,
        "meta_ephemeris_type": 0,
        "meta_classification_type": "U",
        "meta_norad_cat_id": 27513,
        "meta_element_set_no": 999,
        "meta_rev_at_epoch": 8522,
        "meta_bstar": 0,
        "meta_mean_motion_dot": 3.3e-07,
        "meta_mean_motion_ddot": 0,
        "tle_line1": "1 27513U 02041A   25353.20875817  .00000033  00000+0  00000+0 0  9995",
        "tle_line2": "2 27513   5.3458  75.1553 0006320 197.8697 314.3156  1.00272586 85220"
      },
      "geometry": {
        "type": "Point",
        "coordinates": [
          103.46027450528618,
          2.5683709447223175
        ]
      }
    }
  ]
}